{
  "type": "FeatureCollection",
  "features": [
    {
      "type": "Feature",
      "properties": {
        "norad_id": 43823,
        "name": "GEO-KOMPSAT-2A",
        "group": "weather",
        "lat": -0.020530037055766302,
        "lon": 57.54274425219297,
        "alt_km": 35786.80558801463,
        "timestamp": "2025-12-11T13:55:01.810784+00:00",
        "meta_object_name": "GEO-KOMPSAT-2A",
        "meta_object_id": "2018-100A",
        "meta_epoch": "2025-12-11T04:54:38.666880",
        "meta_mean_motion": 1.00269291,
        "meta_eccentricity": 7.05e-06,
        "meta_inclination": 0.0427,
        "meta_ra_of_asc_node": 144.3227,
        "meta_arg_of_pericenter": 356.5636,
        "meta_mean_anomaly": 141.1986,
        "meta_ephemeris_type": 0,
        "meta_classification_type": "U",
        "meta_norad_cat_id": 43823,
        "meta_element_set_no": 999,
        "meta_rev_at_epoch": 2574,
        "meta_bstar": 0,
        "meta_mean_motion_dot": -3.38e-06,
        "meta_mean_motion_ddot": 0,
        "tle_line1": "1 43823U 18100A   25345.20461420 -.00000338  00000+0  00000+0 0  9991",
        "tle_line2": "2 43823   0.0427 144.3227 0000070 356.5636 141.1986  1.00269291 25747"
      },
      "geometry": {
        "type": "Point",
        "coordinates": [
          57.54274425219297,
          -0.020530037055766302
        ]
      }
    },
    {
      "type": "Feature",
      "properties": {
        "norad_id": 44387,
        "name": "METEOR-M2 2",
        "group": "weather",
        "lat": -11.223548412109656,
        "lon": 143.51296152147216,
        "alt_km": 814.4944326905434,
        "timestamp": "2025-12-11T13:55:01.810795+00:00",
        "meta_object_name": "METEOR-M2 2",
        "meta_object_id": "2019-038A",
        "meta_epoch": "2025-12-11T06:16:41.333664",
        "meta_mean_motion": 14.24291069,
        "meta_eccentricity": 0.00011945,
        "meta_inclination": 98.8975,
        "meta_ra_of_asc_node": 324.9721,
        "meta_arg_of_pericenter": 150.0017,
        "meta_mean_anomaly": 210.123,
        "meta_ephemeris_type": 0,
        "meta_classification_type": "U",
        "meta_norad_cat_id": 44387,
        "meta_element_set_no": 999,
        "meta_rev_at_epoch": 33454,
        "meta_bstar": 0.00019550507,
        "meta_mean_motion_dot": 4.06e-06,
        "meta_mean_motion_ddot": 0,
        "tle_line1": "1 44387U 19038A   25345.26158951  .00000406  00000+0  19551-3 0  9996",
        "tle_line2": "2 44387  98.8975 324.9721 0001194 150.0017 210.1230 14.24291069334547"
      },
      "geometry": {
        "type": "Point",
        "coordinates": [
          143.51296152147216,
          -11.223548412109656
        ]
      }
    },
    {
      "type": "Feature",
      "properties": {
        "norad_id": 47719,
        "name": "ARKTIKA-M 1",
        "group": "weather",
        "lat": 0.9408315392994784,
        "lon": 84.66601474985997,
        "alt_km": 6762.323076165693,
        "timestamp": "2025-12-11T13:55:01.810817+00:00",
        "meta_object_name": "ARKTIKA-M 1",
        "meta_object_id": "2021-016A",
        "meta_epoch": "2025-12-09T14:03:23.859648",
        "meta_mean_motion": 2.00631311,
        "meta_eccentricity": 0.7202538,
        "meta_inclination": 63.1769,
        "meta_ra_of_asc_node": 84.4506,
        "meta_arg_of_pericenter": 269.1116,
        "meta_mean_anomaly": 15.6235,
        "meta_ephemeris_type": 0,
        "meta_classification_type": "U",
        "meta_norad_cat_id": 47719,
        "meta_element_set_no": 999,
        "meta_rev_at_epoch": 3498,
        "meta_bstar": 0,
        "meta_mean_motion_dot": -6.1e-07,
        "meta_mean_motion_ddot": 0,
        "tle_line1": "1 47719U 21016A   25343.58569282 -.00000061  00000+0  00000+0 0  9996",
        "tle_line2": "2 47719  63.1769  84.4506 7202538 269.1116  15.6235  2.00631311 34985"
      },
      "geometry": {
        "type": "Point",
        "coordinates": [
          84.66601474985997,
          0.9408315392994784
        ]
      }
    },
    {
      "type": "Feature",
      "properties": {
        "norad_id": 49008,
        "name": "FENGYUN 3E",
        "group": "weather",
        "lat": 10.829245390058514,
        "lon": 167.8023776343783,
        "alt_km": 827.2925897868345,
        "timestamp": "2025-12-11T13:55:01.810833+00:00",
        "meta_object_name": "FENGYUN 3E",
        "meta_object_id": "2021-062A",
        "meta_epoch": "2025-12-11T06:21:32.830848",
        "meta_mean_motion": 14.19880548,
        "meta_eccentricity": 5.756e-05,
        "meta_inclination": 98.7478,
        "meta_ra_of_asc_node": 345.8034,
        "meta_arg_of_pericenter": 279.113,
        "meta_mean_anomaly": 80.9981,
        "meta_ephemeris_type": 0,
        "meta_classification_type": "U",
        "meta_norad_cat_id": 49008,
        "meta_element_set_no": 999,
        "meta_rev_at_epoch": 22991,
        "meta_bstar": 0.00016982334,
        "meta_mean_motion_dot": 3.16e-06,
        "meta_mean_motion_ddot": 0,
        "tle_line1": "1 49008U 21062A   25345.26496332  .00000316  00000+0  16982-3 0  9994",
        "tle_line2": "2 49008  98.7478 345.8034 0000575 279.1130  80.9981 14.19880548229919"
      },
      "geometry": {
        "type": "Point",
        "coordinates": [
          167.8023776343783,
          10.829245390058514
        ]
      }
    },
    {
      "type": "Feature",
      "properties": {
        "norad_id": 51850,
        "name": "GOES 18",
        "group": "weather",
        "lat": 0.00011224492236818368,
        "lon": 152.28761259283823,
        "alt_km": 35788.682309763055,
        "timestamp": "2025-12-11T13:55:01.810845+00:00",
        "meta_object_name": "GOES 18",
        "meta_object_id": "2022-021A",
        "meta_epoch": "2025-12-11T04:43:38.646912",
        "meta_mean_motion": 1.00271937,
        "meta_eccentricity": 6.995e-05,
        "meta_inclination": 0.0195,
        "meta_ra_of_asc_node": 157.0095,
        "meta_arg_of_pericenter": 150.9748,
        "meta_mean_anomaly": 66.0866,
        "meta_ephemeris_type": 0,
        "meta_classification_type": "U",
        "meta_norad_cat_id": 51850,
        "meta_element_set_no": 999,
        "meta_rev_at_epoch": 470,
        "meta_bstar": 0,
        "meta_mean_motion_dot": 1.03e-06,
        "meta_mean_motion_ddot": 0,
        "tle_line1": "1 51850U 22021A   25345.19697508  .00000103  00000+0  00000+0 0  9992",
        "tle_line2": "2 51850   0.0195 157.0095 0000699 150.9748  66.0866  1.00271937  4704"
      },
      "geometry": {
        "type": "Point",
        "coordinates": [
          152.28761259283823,
          0.00011224492236818368
        ]
      }
    },
    {
      "type": "Feature",
      "properties": {
        "norad_id": 54234,
        "name": "NOAA 21 (JPSS-2)",
        "group": "weather",
        "lat": 3.009159924927701,
        "lon": 102.36619220134433,
        "alt_km": 830.6676997033901,
        "timestamp": "2025-12-11T13:55:01.810857+00:00",
        "meta_object_name": "NOAA 21 (JPSS-2)",
        "meta_object_id": "2022-150A",
        "meta_epoch": "2025-12-11T06:19:12.984672",
        "meta_mean_motion": 14.19523751,
        "meta_eccentricity": 0.00022697,
        "meta_inclination": 98.746,
        "meta_ra_of_asc_node": 281.59,
        "meta_arg_of_pericenter": 40.896,
        "meta_mean_anomaly": 319.2386,
        "meta_ephemeris_type": 0,
        "meta_classification_type": "U",
        "meta_norad_cat_id": 54234,
        "meta_element_set_no": 999,
        "meta_rev_at_epoch": 15988,
        "meta_bstar": 0.00011135478,
        "meta_mean_motion_dot": 1.91e-06,
        "meta_mean_motion_ddot": 0,
        "tle_line1": "1 54234U 22150A   25345.26334473  .00000191  00000+0  11135-3 0  9993",
        "tle_line2": "2 54234  98.7460 281.5900 0002269  40.8960 319.2386 14.19523751159886"
      },
      "geometry": {
        "type": "Point",
        "coordinates": [
          102.36619220134433,
          3.009159924927701
        ]
      }
    },
    {
      "type": "Feature",
      "properties": {
        "norad_id": 54743,
        "name": "METEOSAT-12 (MTG-I1)",
        "group": "weather",
        "lat": -0.6973297113303213,
        "lon": -70.93951633042045,
        "alt_km": 35780.385349927405,
        "timestamp": "2025-12-11T13:55:01.810868+00:00",
        "meta_object_name": "METEOSAT-12 (MTG-I1)",
        "meta_object_id": "2022-170C",
        "meta_epoch": "2025-12-11T04:16:38.887104",
        "meta_mean_motion": 1.0026855,
        "meta_eccentricity": 0.00018055,
        "meta_inclination": 0.6852,
        "meta_ra_of_asc_node": 23.3281,
        "meta_arg_of_pericenter": 236.6691,
        "meta_mean_anomaly": 244.0704,
        "meta_ephemeris_type": 0,
        "meta_classification_type": "U",
        "meta_norad_cat_id": 54743,
        "meta_element_set_no": 999,
        "meta_rev_at_epoch": 1109,
        "meta_bstar": 0,
        "meta_mean_motion_dot": -2e-08,
        "meta_mean_motion_ddot": 0,
        "tle_line1": "1 54743U 22170C   25345.17822786 -.00000002  00000+0  00000+0 0  9996",
        "tle_line2": "2 54743   0.6852  23.3281 0001805 236.6691 244.0704  1.00268550 11091"
      },
      "geometry": {
        "type": "Point",
        "coordinates": [
          -70.93951633042045,
          -0.6973297113303213
        ]
      }
    }
  ]
}